IRIDIUM 116             
1 43072U 17083C   24046.78322923 -.00000027  00000+0 -16699-4 0  9992
2 43072  86.3992 318.2671 0002107  84.2947 275.8489 14.34217850321999
IRIDIUM 130             
1 43073U 17083D   24046.82127957  .00000211  00000+0  68104-4 0  9999
2 43073  86.4002 318.4438 0001966  86.6596 273.4825 14.34219105321942
IRIDIUM 151             
1 43074U 17083E   24046.30753359  .00000329  00000+0  11040-3 0  9990
2 43074  86.3995 318.5045 0002276  77.1412 283.0038 14.34219951321891
IRIDIUM 134             
1 43075U 17083F   24046.83396586  .00000128  00000+0  38765-4 0  9995
2 43075  86.3994 318.2810 0002003  88.3833 271.7592 14.34216569321933
IRIDIUM 137             
1 43076U 17083G   24046.28850799  .00000463  00000+0  15818-3 0  9991
2 43076  86.3999 318.5847 0002544  82.9451 277.2034 14.34215868321920
IRIDIUM 141             
1 43077U 17083H   24046.28215984  .00000611  00000+0  21094-3 0  9991
2 43077  86.3993 318.4661 0002028  82.0407 278.1019 14.34222022321920
IRIDIUM 153             
1 43078U 17083J   24046.72272096  .00000022  00000+0  74404-6 0  9990
2 43078  86.3951 286.7273 0001885  73.0528 287.0874 14.34216989323098
IRIDIUM 131             
1 43079U 17083K   24046.26947653  .00000024  00000+0  16504-5 0  9996
2 43079  86.4001 318.6008 0002233  83.0592 277.0857 14.34214592321857
